[{"OBJECT_NAME":"FENGYUN 1C DEB","OBJECT_ID":"1999-025BDK","EPOCH":"2026-04-25T05:27:36.861408","MEAN_MOTION":14.09013243,"ECCENTRICITY":0.0112373,"INCLINATION":98.6947,"RA_OF_ASC_NODE":101.5759,"ARG_OF_PERICENTER":332.3743,"MEAN_ANOMALY":37.9791,"EPHEMERIS_TYPE":0,"CLASSIFICATION_TYPE":"U","NORAD_CAT_ID":31017,"ELEMENT_SET_NO":999,"REV_AT_EPOCH":98176,"BSTAR":0.00028963,"MEAN_MOTION_DOT":4.89e-6,"MEAN_MOTION_DDOT":0},{"OBJECT_NAME":"FENGYUN 1C DEB","OBJECT_ID":"1999-025BDL","EPOCH":"2026-04-26T05:15:23.035104","MEAN_MOTION":14.17831167,"ECCENTRICITY":0.0059485,"INCLINATION":99.0171,"RA_OF_ASC_NODE":209.9893,"ARG_OF_PERICENTER":103.8019,"MEAN_ANOMALY":256.9784,"EPHEMERIS_TYPE":0,"CLASSIFICATION_TYPE":"U","NORAD_CAT_ID":31018,"ELEMENT_SET_NO":999,"REV_AT_EPOCH":97960,"BSTAR":0.0014746,"MEAN_MOTION_DOT":3.019e-5,"MEAN_MOTION_DDOT":0},{"OBJECT_NAME":"FENGYUN 1C DEB","OBJECT_ID":"1999-025BDM","EPOCH":"2026-04-25T16:28:08.073120","MEAN_MOTION":11.83292115,"ECCENTRICITY":0.11059569,"INCLINATION":98.7239,"RA_OF_ASC_NODE":273.0516,"ARG_OF_PERICENTER":25.2086,"MEAN_ANOMALY":356.4221,"EPHEMERIS_TYPE":0,"CLASSIFICATION_TYPE":"U","NORAD_CAT_ID":31019,"ELEMENT_SET_NO":999,"REV_AT_EPOCH":56765,"BSTAR":0.0011231507,"MEAN_MOTION_DOT":3.86e-6,"MEAN_MOTION_DDOT":0},{"OBJECT_NAME":"FENGYUN 1C DEB","OBJECT_ID":"1999-025BDP","EPOCH":"2026-04-25T13:24:36.050976","MEAN_MOTION":14.77449067,"ECCENTRICITY":0.02619882,"INCLINATION":98.3554,"RA_OF_ASC_NODE":235.7506,"ARG_OF_PERICENTER":174.5374,"MEAN_ANOMALY":185.8796,"EPHEMERIS_TYPE":0,"CLASSIFICATION_TYPE":"U","NORAD_CAT_ID":31021,"ELEMENT_SET_NO":999,"REV_AT_EPOCH":75407,"BSTAR":0.00096370919,"MEAN_MOTION_DOT":0.00012156,"MEAN_MOTION_DDOT":0},{"OBJECT_NAME":"FENGYUN 1C DEB","OBJECT_ID":"1999-025BDQ","EPOCH":"2026-04-24T10:01:02.540928","MEAN_MOTION":13.9060284,"ECCENTRICITY":0.01102349,"INCLINATION":99.5039,"RA_OF_ASC_NODE":6.1423,"ARG_OF_PERICENTER":126.5635,"MEAN_ANOMALY":234.5729,"EPHEMERIS_TYPE":0,"CLASSIFICATION_TYPE":"U","NORAD_CAT_ID":31022,"ELEMENT_SET_NO":999,"REV_AT_EPOCH":63852,"BSTAR":0.00036516327,"MEAN_MOTION_DOT":4.32e-6,"MEAN_MOTION_DDOT":0},{"OBJECT_NAME":"FENGYUN 1C DEB","OBJECT_ID":"1999-025BDR","EPOCH":"2026-04-22T05:36:46.378368","MEAN_MOTION":14.06770291,"ECCENTRICITY":0.00816046,"INCLINATION":98.8283,"RA_OF_ASC_NODE":99.4585,"ARG_OF_PERICENTER":214.3178,"MEAN_ANOMALY":145.2703,"EPHEMERIS_TYPE":0,"CLASSIFICATION_TYPE":"U","NORAD_CAT_ID":31023,"ELEMENT_SET_NO":999,"REV_AT_EPOCH":71336,"BSTAR":0.00015152551,"MEAN_MOTION_DOT":2.16e-6,"MEAN_MOTION_DDOT":0},{"OBJECT_NAME":"FENGYUN 1C DEB","OBJECT_ID":"1999-025BDS","EPOCH":"2026-04-24T11:44:57.181344","MEAN_MOTION":14.21059116,"ECCENTRICITY":0.00753522,"INCLINATION":99.0434,"RA_OF_ASC_NODE":35.9239,"ARG_OF_PERICENTER":105.4547,"MEAN_ANOMALY":255.4968,"EPHEMERIS_TYPE":0,"CLASSIFICATION_TYPE":"U","NORAD_CAT_ID":31024,"ELEMENT_SET_NO":999,"REV_AT_EPOCH":98589,"BSTAR":0.00018640189,"MEAN_MOTION_DOT":3.7e-6,"MEAN_MOTION_DDOT":0},{"OBJECT_NAME":"FENGYUN 1C DEB","OBJECT_ID":"1999-025BDT","EPOCH":"2026-04-23T04:52:23.249568","MEAN_MOTION":14.20957618,"ECCENTRICITY":0.01713477,"INCLINATION":98.5897,"RA_OF_ASC_NODE":104.738,"ARG_OF_PERICENTER":352.2784,"MEAN_ANOMALY":7.5761,"EPHEMERIS_TYPE":0,"CLASSIFICATION_TYPE":"U","NORAD_CAT_ID":31025,"ELEMENT_SET_NO":999,"REV_AT_EPOCH":66232,"BSTAR":0.00043334798,"MEAN_MOTION_DOT":1.044e-5,"MEAN_MOTION_DDOT":0},{"OBJECT_NAME":"FENGYUN 1C DEB","OBJECT_ID":"1999-025BDU","EPOCH":"2026-04-23T14:25:59.238912","MEAN_MOTION":13.83465203,"ECCENTRICITY":0.01341823,"INCLINATION":98.7907,"RA_OF_ASC_NODE":45.5165,"ARG_OF_PERICENTER":185.754,"MEAN_ANOMALY":353.4852,"EPHEMERIS_TYPE":0,"CLASSIFICATION_TYPE":"U","NORAD_CAT_ID":31026,"ELEMENT_SET_NO":999,"REV_AT_EPOCH":69849,"BSTAR":0.00013855372,"MEAN_MOTION_DOT":1.23e-6,"MEAN_MOTION_DDOT":0},{"OBJECT_NAME":"FENGYUN 1C DEB","OBJECT_ID":"1999-025BDW","EPOCH":"2026-04-23T14:24:14.670720","MEAN_MOTION":13.89175445,"ECCENTRICITY":0.01641079,"INCLINATION":98.7143,"RA_OF_ASC_NODE":41.9575,"ARG_OF_PERICENTER":293.3568,"MEAN_ANOMALY":65.0401,"EPHEMERIS_TYPE":0,"CLASSIFICATION_TYPE":"U","NORAD_CAT_ID":31028,"ELEMENT_SET_NO":999,"REV_AT_EPOCH":63834,"BSTAR":0.0001622448,"MEAN_MOTION_DOT":1.78e-6,"MEAN_MOTION_DDOT":0},{"OBJECT_NAME":"FENGYUN 1C DEB","OBJECT_ID":"1999-025BDX","EPOCH":"2026-04-25T04:45:16.864704","MEAN_MOTION":14.34614759,"ECCENTRICITY":0.00897165,"INCLINATION":98.8501,"RA_OF_ASC_NODE":20.385,"ARG_OF_PERICENTER":42.2632,"MEAN_ANOMALY":111.2964,"EPHEMERIS_TYPE":0,"CLASSIFICATION_TYPE":"U","NORAD_CAT_ID":31029,"ELEMENT_SET_NO":999,"REV_AT_EPOCH":99709,"BSTAR":0.00028046,"MEAN_MOTION_DOT":7.83e-6,"MEAN_MOTION_DDOT":0},{"OBJECT_NAME":"FENGYUN 1C DEB","OBJECT_ID":"1999-025BDY","EPOCH":"2026-04-26T11:18:29.756736","MEAN_MOTION":14.24260144,"ECCENTRICITY":0.0027773,"INCLINATION":98.7489,"RA_OF_ASC_NODE":182.8838,"ARG_OF_PERICENTER":56.0468,"MEAN_ANOMALY":320.8231,"EPHEMERIS_TYPE":0,"CLASSIFICATION_TYPE":"U","NORAD_CAT_ID":31030,"ELEMENT_SET_NO":999,"REV_AT_EPOCH":98622,"BSTAR":0.00074992,"MEAN_MOTION_DOT":1.693e-5,"MEAN_MOTION_DDOT":0},{"OBJECT_NAME":"FENGYUN 1C DEB","OBJECT_ID":"1999-025BDZ","EPOCH":"2026-04-25T18:10:06.680928","MEAN_MOTION":14.21253673,"ECCENTRICITY":0.00280612,"INCLINATION":99.0754,"RA_OF_ASC_NODE":41.4677,"ARG_OF_PERICENTER":162.9306,"MEAN_ANOMALY":226.1604,"EPHEMERIS_TYPE":0,"CLASSIFICATION_TYPE":"U","NORAD_CAT_ID":31031,"ELEMENT_SET_NO":999,"REV_AT_EPOCH":98758,"BSTAR":0.00029005953,"MEAN_MOTION_DOT":5.88e-6,"MEAN_MOTION_DDOT":0},{"OBJECT_NAME":"FENGYUN 1C DEB","OBJECT_ID":"1999-025BEA","EPOCH":"2026-04-26T13:14:17.142720","MEAN_MOTION":14.02881082,"ECCENTRICITY":0.0138206,"INCLINATION":99.3962,"RA_OF_ASC_NODE":134.6619,"ARG_OF_PERICENTER":185.5269,"MEAN_ANOMALY":327.1609,"EPHEMERIS_TYPE":0,"CLASSIFICATION_TYPE":"U","NORAD_CAT_ID":31032,"ELEMENT_SET_NO":999,"REV_AT_EPOCH":96871,"BSTAR":0.0010097,"MEAN_MOTION_DOT":1.655e-5,"MEAN_MOTION_DDOT":0},{"OBJECT_NAME":"FENGYUN 1C DEB","OBJECT_ID":"1999-025BEB","EPOCH":"2026-04-26T10:12:30.302208","MEAN_MOTION":14.27654319,"ECCENTRICITY":0.015396,"INCLINATION":98.4562,"RA_OF_ASC_NODE":95.3196,"ARG_OF_PERICENTER":74.725,"MEAN_ANOMALY":75.1127,"EPHEMERIS_TYPE":0,"CLASSIFICATION_TYPE":"U","NORAD_CAT_ID":31033,"ELEMENT_SET_NO":999,"REV_AT_EPOCH":99267,"BSTAR":0.00023333,"MEAN_MOTION_DOT":6.09e-6,"MEAN_MOTION_DDOT":0},{"OBJECT_NAME":"FENGYUN 1C DEB","OBJECT_ID":"1999-025BEE","EPOCH":"2026-04-26T06:57:41.387040","MEAN_MOTION":14.4934713,"ECCENTRICITY":0.0137318,"INCLINATION":98.9222,"RA_OF_ASC_NODE":235.4024,"ARG_OF_PERICENTER":220.1652,"MEAN_ANOMALY":169.3901,"EPHEMERIS_TYPE":0,"CLASSIFICATION_TYPE":"U","NORAD_CAT_ID":31036,"ELEMENT_SET_NO":999,"REV_AT_EPOCH":59256,"BSTAR":0.00021191,"MEAN_MOTION_DOT":8.55e-6,"MEAN_MOTION_DDOT":0}]
