FENGYUN 1C DEB          
1 31017U 99025BDK 26115.22750997  .00000489  00000+0  28963-3 0  9994
2 31017  98.6947 101.5759 0112373 332.3743  37.9791 14.09013243981761
FENGYUN 1C DEB          
1 31018U 99025BDL 26116.21901661  .00003019  00000+0  14746-2 0  9996
2 31018  99.0171 209.9893 0059485 103.8019 256.9784 14.17831167979606
FENGYUN 1C DEB          
1 31019U 99025BDM 26115.68620455  .00000386  00000+0  11232-2 0  9997
2 31019  98.7239 273.0516 1105956  25.2086 356.4221 11.83292115567653
FENGYUN 1C DEB          
1 31021U 99025BDP 26115.55875059  .00012156  00000+0  96371-3 0  9994
2 31021  98.3554 235.7506 0261988 174.5374 185.8796 14.77449067754072
FENGYUN 1C DEB          
1 31022U 99025BDQ 26114.41739052  .00000432  00000+0  36516-3 0  9990
2 31022  99.5039   6.1423 0110234 126.5635 234.5729 13.90602840638529
FENGYUN 1C DEB          
1 31023U 99025BDR 26112.23387012  .00000216  00000+0  15153-3 0  9998
2 31023  98.8283  99.4585 0081604 214.3178 145.2703 14.06770291713363
FENGYUN 1C DEB          
1 31024U 99025BDS 26114.48955071  .00000370  00000+0  18640-3 0  9999
2 31024  99.0434  35.9239 0075352 105.4547 255.4968 14.21059116985898
FENGYUN 1C DEB          
1 31025U 99025BDT 26113.20304687  .00001044  00000+0  43335-3 0  9998
2 31025  98.5897 104.7380 0171347 352.2784   7.5761 14.20957618662324
FENGYUN 1C DEB          
1 31026U 99025BDU 26113.60138008  .00000123  00000+0  13855-3 0  9996
2 31026  98.7907  45.5165 0134182 185.7540 353.4852 13.83465203698490
FENGYUN 1C DEB          
1 31028U 99025BDW 26113.60016980  .00000178  00000+0  16224-3 0  9995
2 31028  98.7143  41.9575 0164107 293.3568  65.0401 13.89175445638341
FENGYUN 1C DEB          
1 31029U 99025BDX 26115.19811186  .00000783  00000+0  28046-3 0  9990
2 31029  98.8501  20.3850 0089716  42.2632 111.2964 14.34614759997098
FENGYUN 1C DEB          
1 31030U 99025BDY 26116.47117774  .00001693  00000+0  74992-3 0  9998
2 31030  98.7489 182.8838 0027773  56.0468 320.8231 14.24260144986221
FENGYUN 1C DEB          
1 31031U 99025BDZ 26115.75702177  .00000588  00000+0  29006-3 0  9994
2 31031  99.0754  41.4677 0028061 162.9306 226.1604 14.21253673987589
FENGYUN 1C DEB          
1 31032U 99025BEA 26116.55158730  .00001655  00000+0  10097-2 0  9999
2 31032  99.3962 134.6619 0138206 185.5269 327.1609 14.02881082968718
FENGYUN 1C DEB          
1 31033U 99025BEB 26116.42535072  .00000609  00000+0  23333-3 0  9990
2 31033  98.4562  95.3196 0153960  74.7250  75.1127 14.27654319992676
FENGYUN 1C DEB          
1 31036U 99025BEE 26116.29006235  .00000855  00000+0  21191-3 0  9995
2 31036  98.9222 235.4024 0137318 220.1652 169.3901 14.49347130592560
